ONEWEB-0249             
1 48967U 21060A   25337.35993199 -.00000029  00000+0 -11059-3 0  9992
2 48967  87.9036 267.7729 0001902  73.7892 286.3448 13.16594535213842
ONEWEB-0250             
1 48968U 21060B   25337.76962193  .00000017  00000+0  96695-5 0  9994
2 48968  87.9035 266.0866 0001756  41.7723 318.3547 13.25819255214320
ONEWEB-0252             
1 48970U 21060D   25337.77156463 -.00000071  00000+0 -21970-3 0  9997
2 48970  87.9036 267.6845 0001919  80.9801 279.1547 13.16592489213949
ONEWEB-0253             
1 48971U 21060E   25337.76049823 -.00000055  00000+0 -17628-3 0  9995
2 48971  87.9041 267.6910 0001964  73.8941 286.2406 13.16595498213873
ONEWEB-0254             
1 48972U 21060F   25337.31401438  .00000025  00000+0  32908-4 0  9995
2 48972  87.9044 267.7710 0002065  68.4729 291.6622 13.16595846213814
ONEWEB-0255             
1 48973U 21060G   25337.73198557  .00001231  00000+0  31864-2 0  9995
2 48973  87.9028 267.7044 0001267 104.2568 255.8704 13.16604830213941
ONEWEB-0256             
1 48974U 21060H   25337.75812995 -.00000173  00000+0 -48629-3 0  9991
2 48974  87.9028 267.7082 0001753  79.1972 280.9356 13.16592459213915
ONEWEB-0257             
1 48975U 21060J   25337.79057987  .00000047  00000+0  90463-4 0  9990
2 48975  87.9038 267.6790 0001930  75.2293 284.9052 13.16594086213872
